{
  "type": "FeatureCollection",
  "features": [
    {
      "type": "Feature",
      "properties": {
        "norad_id": 28890,
        "name": "BEIJING 1",
        "group": "dmc",
        "lat": -60.32222217561163,
        "lon": -72.64384077046891,
        "alt_km": 695.4985257849794,
        "timestamp": "2025-12-20T14:38:01.625112+00:00",
        "meta_object_name": "BEIJING 1",
        "meta_object_id": "2005-043A",
        "meta_epoch": "2025-12-20T06:58:17.593824",
        "meta_mean_motion": 14.6337293,
        "meta_eccentricity": 0.00156715,
        "meta_inclination": 98.2657,
        "meta_ra_of_asc_node": 121.8151,
        "meta_arg_of_pericenter": 119.0844,
        "meta_mean_anomaly": 241.193,
        "meta_ephemeris_type": 0,
        "meta_classification_type": "U",
        "meta_norad_cat_id": 28890,
        "meta_element_set_no": 999,
        "meta_rev_at_epoch": 7448,
        "meta_bstar": 7.2758319e-05,
        "meta_mean_motion_dot": 3.28e-06,
        "meta_mean_motion_ddot": 0,
        "tle_line1": "1 28890U 05043A   25354.29048141  .00000328  00000+0  72758-4 0  9992",
        "tle_line2": "2 28890  98.2657 121.8151 0015671 119.0844 241.1930 14.63372930 74483"
      },
      "geometry": {
        "type": "Point",
        "coordinates": [
          -72.64384077046891,
          -60.32222217561163
        ]
      }
    },
    {
      "type": "Feature",
      "properties": {
        "norad_id": 33320,
        "name": "HUANJING 1A (HJ-1A)",
        "group": "dmc",
        "lat": 63.6311706473328,
        "lon": 178.31884529091855,
        "alt_km": 616.11215854277,
        "timestamp": "2025-12-20T14:38:01.625136+00:00",
        "meta_object_name": "HUANJING 1A (HJ-1A)",
        "meta_object_id": "2008-041A",
        "meta_epoch": "2025-12-20T06:01:21.927936",
        "meta_mean_motion": 14.83415904,
        "meta_eccentricity": 0.00196533,
        "meta_inclination": 97.6535,
        "meta_ra_of_asc_node": 342.2359,
        "meta_arg_of_pericenter": 10.5324,
        "meta_mean_anomaly": 349.6298,
        "meta_ephemeris_type": 0,
        "meta_classification_type": "U",
        "meta_norad_cat_id": 33320,
        "meta_element_set_no": 999,
        "meta_rev_at_epoch": 93187,
        "meta_bstar": 0.00014804029,
        "meta_mean_motion_dot": 1.168e-05,
        "meta_mean_motion_ddot": 0,
        "tle_line1": "1 33320U 08041A   25354.25094824  .00001168  00000+0  14804-3 0  9992",
        "tle_line2": "2 33320  97.6535 342.2359 0019653  10.5324 349.6298 14.83415904931873"
      },
      "geometry": {
        "type": "Point",
        "coordinates": [
          178.31884529091855,
          63.6311706473328
        ]
      }
    },
    {
      "type": "Feature",
      "properties": {
        "norad_id": 33321,
        "name": "HUANJING 1B (HJ-1B)",
        "group": "dmc",
        "lat": -40.23083689117799,
        "lon": -7.223783664273939,
        "alt_km": 627.4960177134362,
        "timestamp": "2025-12-20T14:38:01.625151+00:00",
        "meta_object_name": "HUANJING 1B (HJ-1B)",
        "meta_object_id": "2008-041B",
        "meta_epoch": "2025-12-20T06:43:07.921920",
        "meta_mean_motion": 14.82841218,
        "meta_eccentricity": 0.00380143,
        "meta_inclination": 97.6395,
        "meta_ra_of_asc_node": 345.9411,
        "meta_arg_of_pericenter": 51.9639,
        "meta_mean_anomaly": 308.4997,
        "meta_ephemeris_type": 0,
        "meta_classification_type": "U",
        "meta_norad_cat_id": 33321,
        "meta_element_set_no": 999,
        "meta_rev_at_epoch": 93189,
        "meta_bstar": 0.00017947448,
        "meta_mean_motion_dot": 1.419e-05,
        "meta_mean_motion_ddot": 0,
        "tle_line1": "1 33321U 08041B   25354.27995280  .00001419  00000+0  17947-3 0  9991",
        "tle_line2": "2 33321  97.6395 345.9411 0038014  51.9639 308.4997 14.82841218931898"
      },
      "geometry": {
        "type": "Point",
        "coordinates": [
          -7.223783664273939,
          -40.23083689117799
        ]
      }
    },
    {
      "type": "Feature",
      "properties": {
        "norad_id": 33446,
        "name": "YAOGAN-4",
        "group": "dmc",
        "lat": -47.13537714869844,
        "lon": 96.00617452894978,
        "alt_km": 624.1838619390737,
        "timestamp": "2025-12-20T14:38:01.625164+00:00",
        "meta_object_name": "YAOGAN-4",
        "meta_object_id": "2008-061A",
        "meta_epoch": "2025-12-20T05:30:38.316096",
        "meta_mean_motion": 14.82702556,
        "meta_eccentricity": 0.00131278,
        "meta_inclination": 97.9192,
        "meta_ra_of_asc_node": 284.2555,
        "meta_arg_of_pericenter": 296.9505,
        "meta_mean_anomaly": 63.0367,
        "meta_ephemeris_type": 0,
        "meta_classification_type": "U",
        "meta_norad_cat_id": 33446,
        "meta_element_set_no": 999,
        "meta_rev_at_epoch": 91914,
        "meta_bstar": 0.00012360926,
        "meta_mean_motion_dot": 9.45e-06,
        "meta_mean_motion_ddot": 0,
        "tle_line1": "1 33446U 08061A   25354.22961014  .00000945  00000+0  12361-3 0  9992",
        "tle_line2": "2 33446  97.9192 284.2555 0013127 296.9505  63.0367 14.82702556919149"
      },
      "geometry": {
        "type": "Point",
        "coordinates": [
          96.00617452894978,
          -47.13537714869844
        ]
      }
    },
    {
      "type": "Feature",
      "properties": {
        "norad_id": 35681,
        "name": "DEIMOS-1",
        "group": "dmc",
        "lat": 40.81124129379858,
        "lon": -18.432075428728197,
        "alt_km": 641.5010370273058,
        "timestamp": "2025-12-20T14:38:01.625176+00:00",
        "meta_object_name": "DEIMOS-1",
        "meta_object_id": "2009-041A",
        "meta_epoch": "2025-12-20T05:52:00.361632",
        "meta_mean_motion": 14.74963387,
        "meta_eccentricity": 0.00025947,
        "meta_inclination": 97.7143,
        "meta_ra_of_asc_node": 154.4979,
        "meta_arg_of_pericenter": 67.6781,
        "meta_mean_anomaly": 292.4704,
        "meta_ephemeris_type": 0,
        "meta_classification_type": "U",
        "meta_norad_cat_id": 35681,
        "meta_element_set_no": 999,
        "meta_rev_at_epoch": 88050,
        "meta_bstar": 7.8531896e-05,
        "meta_mean_motion_dot": 4.8e-06,
        "meta_mean_motion_ddot": 0,
        "tle_line1": "1 35681U 09041A   25354.24444863  .00000480  00000+0  78532-4 0  9991",
        "tle_line2": "2 35681  97.7143 154.4979 0002594  67.6781 292.4704 14.74963387880501"
      },
      "geometry": {
        "type": "Point",
        "coordinates": [
          -18.432075428728197,
          40.81124129379858
        ]
      }
    },
    {
      "type": "Feature",
      "properties": {
        "norad_id": 35683,
        "name": "UK-DMC 2",
        "group": "dmc",
        "lat": 7.009179822794257,
        "lon": -49.73719796532904,
        "alt_km": 644.9915028592786,
        "timestamp": "2025-12-20T14:38:01.625187+00:00",
        "meta_object_name": "UK-DMC 2",
        "meta_object_id": "2009-041C",
        "meta_epoch": "2025-12-20T07:20:37.294080",
        "meta_mean_motion": 14.7563726,
        "meta_eccentricity": 0.00015196,
        "meta_inclination": 97.8563,
        "meta_ra_of_asc_node": 128.995,
        "meta_arg_of_pericenter": 94.2158,
        "meta_mean_anomaly": 265.9225,
        "meta_ephemeris_type": 0,
        "meta_classification_type": "U",
        "meta_norad_cat_id": 35683,
        "meta_element_set_no": 999,
        "meta_rev_at_epoch": 88018,
        "meta_bstar": 0.0001193768,
        "meta_mean_motion_dot": 7.66e-06,
        "meta_mean_motion_ddot": 0,
        "tle_line1": "1 35683U 09041C   25354.30598720  .00000766  00000+0  11938-3 0  9995",
        "tle_line2": "2 35683  97.8563 128.9950 0001519  94.2158 265.9225 14.75637260880181"
      },
      "geometry": {
        "type": "Point",
        "coordinates": [
          -49.73719796532904,
          7.009179822794257
        ]
      }
    },
    {
      "type": "Feature",
      "properties": {
        "norad_id": 40715,
        "name": "DMC3-FM1",
        "group": "dmc",
        "lat": 40.144989133589704,
        "lon": 48.04033753297588,
        "alt_km": 611.637423023637,
        "timestamp": "2025-12-20T14:38:01.625199+00:00",
        "meta_object_name": "DMC3-FM1",
        "meta_object_id": "2015-032A",
        "meta_epoch": "2025-12-20T05:55:29.956800",
        "meta_mean_motion": 14.85450654,
        "meta_eccentricity": 0.00042255,
        "meta_inclination": 97.6689,
        "meta_ra_of_asc_node": 221.1653,
        "meta_arg_of_pericenter": 290.6583,
        "meta_mean_anomaly": 69.4179,
        "meta_ephemeris_type": 0,
        "meta_classification_type": "U",
        "meta_norad_cat_id": 40715,
        "meta_element_set_no": 999,
        "meta_rev_at_epoch": 56334,
        "meta_bstar": 4.7418183e-05,
        "meta_mean_motion_dot": 3.57e-06,
        "meta_mean_motion_ddot": 0,
        "tle_line1": "1 40715U 15032A   25354.24687450  .00000357  00000+0  47418-4 0  9995",
        "tle_line2": "2 40715  97.6689 221.1653 0004225 290.6583  69.4179 14.85450654563349"
      },
      "geometry": {
        "type": "Point",
        "coordinates": [
          48.04033753297588,
          40.144989133589704
        ]
      }
    },
    {
      "type": "Feature",
      "properties": {
        "norad_id": 40716,
        "name": "DMC3-FM2",
        "group": "dmc",
        "lat": 18.950283785276376,
        "lon": -139.68949961726236,
        "alt_km": 612.0320791008098,
        "timestamp": "2025-12-20T14:38:01.625209+00:00",
        "meta_object_name": "DMC3-FM2",
        "meta_object_id": "2015-032B",
        "meta_epoch": "2025-12-20T06:27:52.746336",
        "meta_mean_motion": 14.85455147,
        "meta_eccentricity": 0.00047348,
        "meta_inclination": 97.6748,
        "meta_ra_of_asc_node": 222.6362,
        "meta_arg_of_pericenter": 297.233,
        "meta_mean_anomaly": 62.8403,
        "meta_ephemeris_type": 0,
        "meta_classification_type": "U",
        "meta_norad_cat_id": 40716,
        "meta_element_set_no": 999,
        "meta_rev_at_epoch": 56334,
        "meta_bstar": 0.00012460853,
        "meta_mean_motion_dot": 1.023e-05,
        "meta_mean_motion_ddot": 0,
        "tle_line1": "1 40716U 15032B   25354.26936049  .00001023  00000+0  12461-3 0  9999",
        "tle_line2": "2 40716  97.6748 222.6362 0004734 297.2330  62.8403 14.85455147563346"
      },
      "geometry": {
        "type": "Point",
        "coordinates": [
          -139.68949961726236,
          18.950283785276376
        ]
      }
    },
    {
      "type": "Feature",
      "properties": {
        "norad_id": 40717,
        "name": "DMC3-FM3",
        "group": "dmc",
        "lat": -79.79554993427615,
        "lon": -3.959563608256246,
        "alt_km": 617.2090850150444,
        "timestamp": "2025-12-20T14:38:01.625220+00:00",
        "meta_object_name": "DMC3-FM3",
        "meta_object_id": "2015-032C",
        "meta_epoch": "2025-12-20T05:22:06.408192",
        "meta_mean_motion": 14.85441669,
        "meta_eccentricity": 0.00041169,
        "meta_inclination": 97.6804,
        "meta_ra_of_asc_node": 224.2304,
        "meta_arg_of_pericenter": 299.9718,
        "meta_mean_anomaly": 60.1089,
        "meta_ephemeris_type": 0,
        "meta_classification_type": "U",
        "meta_norad_cat_id": 40717,
        "meta_element_set_no": 999,
        "meta_rev_at_epoch": 56334,
        "meta_bstar": 7.4530405e-05,
        "meta_mean_motion_dot": 5.91e-06,
        "meta_mean_motion_ddot": 0,
        "tle_line1": "1 40717U 15032C   25354.22368528  .00000591  00000+0  74530-4 0  9992",
        "tle_line2": "2 40717  97.6804 224.2304 0004116 299.9718  60.1089 14.85441669563342"
      },
      "geometry": {
        "type": "Point",
        "coordinates": [
          -3.959563608256246,
          -79.79554993427615
        ]
      }
    }
  ]
}